SAUDISAT 1C             
1 27607U 02058C   21280.58637543  .00000135  00000-0  39782-4 0  9993
2 27607  64.5570 355.4353 0054617 348.3923  11.5916 14.75798594 11053
SAUDISAT 2              
1 28371U 04025F   21281.09240778  .00000271  00000-0  74387-4 0  9996
2 28371  98.3376 232.8950 0025814 159.0073 201.2184 14.54449625916607
SAUDISAT 3              
1 31118U 07012B   21280.91904438  .00000074  00000-0  20721-4 0  9992
2 31118  97.9331 229.5991 0013789 281.7037  78.2621 14.69221455776073
PISAT                   
1 41784U 16059B   21280.69416391  .00000196  00000-0  46460-4 0  9997
2 41784  97.9548 328.4076 0030662 247.1123 112.6842 14.63667968268719
FLYING LAPTOP           
1 42831U 17042G   21280.81335229 -.00000197  00000-0 -14501-4 0  9992
2 42831  97.4529 144.5400 0015074 127.9590 232.3001 14.91360135230430
SALSAT                  
1 46495U 20068K   21280.93466992  .00000331  00000-0  28670-4 0  9999
2 46495  97.6998 217.8032 0018671  54.6415 305.6545 15.03578973 56231
